INTELSAT 21 (IS-21)     
1 38749U 12045A   26166.81788397 -.00000284  00000+0  00000+0 0  9998
2 38749   0.0101   9.9691 0001301  96.2138  34.3521  1.00270615 50514
INTELSAT 23 (IS-23)     
1 38867U 12057A   26166.81883730 -.00000283  00000+0  00000+0 0  9998
2 38867   0.0087  17.3111 0000352  65.1100  63.4693  1.00274032 49942
FM-6                    
1 39360U 13058A   26166.34447057  .00000000  00000+0  00000+0 0  9991
2 39360   0.0275  33.5220 0002659 135.8142 101.9068  1.00260139 46050
INTELSAT 30 (IS-30)     
1 40271U 14062A   26166.52537346 -.00000148  00000+0  00000+0 0  9995
2 40271   0.0233  41.8968 0001348 335.4606 340.5381  1.00272478  6778
DIRECTV 14              
1 40333U 14078B   26166.38289572 -.00000122  00000+0  00000+0 0  9992
2 40333   0.0133  23.6782 0000330 263.2070  15.3817  1.00272172 42021
DIRECTV 15              
1 40663U 15026A   26166.27754484 -.00000100  00000+0  00000+0 0  9995
2 40663   0.0162  20.7674 0000277 308.0997 291.7459  1.00276521 40441
SKY MEXICO-1            
1 40664U 15026B   26166.81355062 -.00000233  00000+0  00000+0 0  9992
2 40664   0.0173   3.5561 0001987 102.8980  11.7165  1.00270475 40445
INTELSAT 34 (IS-34)     
1 40874U 15039A   26166.81840397 -.00000284  00000+0  00000+0 0  9995
2 40874   0.0111 330.7780 0000681   4.9623 167.5007  1.00270638 39628
INTELSAT 31 (IS-31)     
1 41581U 16035A   26166.60626130 -.00000149  00000+0  00000+0 0  9992
2 41581   0.0217 268.2079 0001065 346.7056 132.1843  1.00271770 36666
INTELSAT 36 (IS-36)     
1 41747U 16053A   26166.84289623 -.00000023  00000+0  00000+0 0  9995
2 41747   0.0099   3.5421 0002219 328.2563 304.2627  1.00270681 35941
INTELSAT 32E (IS-32E)   
1 41945U 17007B   26166.67815822 -.00000267  00000+0  00000+0 0  9992
2 41945   0.0095 325.1198 0001074   1.1191 138.6819  1.00268477 34214
INTELSAT 35E (IS-35E)   
1 42818U 17041A   26166.82256399 -.00000237  00000+0  00000+0 0  9992
2 42818   0.0164 322.1247 0001588 116.2757  87.3228  1.00268885 32809
INTELSAT 37E (IS-37E)   
1 42950U 17059A   26166.68318491 -.00000139  00000+0  00000+0 0  9995
2 42950   0.0174  20.2416 0002332  86.0423  25.6408  1.00271779 32051
AZERSPACE 2 (IS-38)     
1 43632U 18074A   26166.99556872  .00000137  00000+0  00000+0 0  9999
2 43632   0.0047  53.6221 0001208  30.5459 223.6147  1.00270121 28433
HORIZONS-3E             
1 43633U 18074B   26165.65084600 -.00000024  00000+0  00000+0 0  9993
2 43633   0.0187 163.9480 0000966 106.2603  36.0409  1.00270601 28310
AT&T T-16               
1 44333U 19034A   26166.66680484 -.00000113  00000+0  00000+0 0  9991
2 44333   0.0176  53.5307 0000802 221.3155 128.2945  1.00268632 25618
INTELSAT 39 (IS-39)     
1 44476U 19049B   26166.48520424  .00000036  00000+0  00000+0 0  9995
2 44476   0.0009   5.7459 0000938 308.1942 186.4495  1.00270578 25119
GALAXY 30 (G-30)        
1 46114U 20056C   26166.66203815  .00000039  00000+0  00000+0 0  9991
2 46114   0.0172  10.6110 0002072  74.4375 292.2233  1.00270817 21279
GALAXY 33 (G-33)        
1 54026U 22128A   26166.66047814  .00000081  00000+0  00000+0 0  9996
2 54026   0.0127   0.5959 0001583  86.4230 281.6990  1.00271448 13722
GALAXY 34 (G-34)        
1 54027U 22128B   26166.51861343  .00000061  00000+0  00000+0 0  9990
2 54027   0.0129   6.0107 0001310  96.4818 219.0064  1.00271904 13894
GALAXY 31 (G-31)        
1 54243U 22153A   26166.66281815  .00000015  00000+0  00000+0 0  9993
2 54243   0.0192  52.9107 0001008  23.0812 305.5543  1.00270772  7111
GALAXY 32 (G-32)        
1 54244U 22153B   26165.95583885 -.00000197  00000+0  00000+0 0  9999
2 54244   0.0165 349.6788 0015287 254.3091 272.5395  1.00491998 13126
GALAXY 35 (G-35)        
1 54741U 22170A   26166.81095061  .00000000  00000+0  00000+0 0  9992
2 54741   0.0192  20.5203 0001796  66.0766  16.3275  1.00268797 12884
GALAXY 36 (G-36)        
1 54742U 22170B   26166.52658681 -.00000183  00000+0  00000+0 0  9997
2 54742   0.0222 252.0006 0002527 192.5442 279.8404  1.00271115 12755
GALAXY 37 (G-37)        
1 57493U 23112A   26166.66160480  .00000050  00000+0  00000+0 0  9992
2 57493   0.0245  61.4864 0001701  20.1198 293.5113  1.00271425 10524
